norad_id,name,regime,epoch,line1,line2,inclination,eccentricity,mean_motion,raan,arg_pericenter,mean_anomaly
26566,COSMOS 2374 (GLONASS),NSO,24199.78619383,1 26566U 00063C   24199.78619383 -.00000062  00000-0  00000-0 0    17\,2 26566  65.5439 337.3401 0075117 212.1362 150.0007  2.13099746184858,65.5439,0.0075117,2.13099746,337.3401,212.1362,150.0007
26566,COSMOS 2374 (GLONASS),NSO,24204.94639764,1 26566U 00063C   24204.94639764 -.00000054  00000-0  00000+0 0  4909\,2 26566  65.5423 337.1660 0075314 212.1417 148.6591  2.13099632185021,65.5423,0.0075314,2.13099632,337.166,212.1417,148.6591
26566,COSMOS 2374 (GLONASS),NSO,24205.41357041,1 26566U 00063C   24205.41357041 -.00000054  00000-0  00000-0 0    16\,2 26566  65.5421 337.1502 0075317 212.1377 147.0559  2.13099621184969,65.5421,0.0075317,2.13099621,337.1502,212.1377,147.0559
26566,COSMOS 2374 (GLONASS),NSO,24206.83282344,1 26566U 00063C   24206.83282344 -.00000057  00000-0  00000-0 0    19\,2 26566  65.5412 337.1023 0075245 212.1034 155.8755  2.13099649185008,65.5412,0.0075245,2.13099649,337.1023,212.1034,155.8755
26566,COSMOS 2374 (GLONASS),NSO,24207.72895157,1 26566U 00063C   24207.72895157 -.00000061  00000-0  00000-0 0    15\,2 26566  65.5405 337.0720 0075240 212.1045 123.3416  2.13099640185016,65.5405,0.007524,2.1309964,337.072,212.1045,123.3416
26566,COSMOS 2374 (GLONASS),NSO,24210.58333858,1 26566U 00063C   24210.58333858 -.00000080  00000-0  00000-0 0    19\,2 26566  65.5393 336.9756 0075133 211.9442 153.2552  2.13099636185083,65.5393,0.0075133,2.13099636,336.9756,211.9442,153.2552
26566,COSMOS 2374 (GLONASS),NSO,24212.45481955,1 26566U 00063C   24212.45481955 -.00000092  00000-0  00000-0 0    12\,2 26566  65.5384 336.9124 0075206 211.9788 148.9316  2.13099675185123,65.5384,0.0075206,2.13099675,336.9124,211.9788,148.9316
26566,COSMOS 2374 (GLONASS),NSO,24212.92418927,1 26566U 00063C   24212.92418927 -.00000094  00000-0  00000+0 0  4939\,2 26566  65.5382 336.8965 0075222 211.9890 148.9995  2.13099688185199,65.5382,0.0075222,2.13099688,336.8965,211.989,148.9995
26566,COSMOS 2374 (GLONASS),NSO,24213.39532679,1 26566U 00063C   24213.39532679 -.00000096  00000-0  00000-0 0    10\,2 26566  65.5379 336.8806 0075508 212.2316 150.1866  2.13099718185144,65.5379,0.0075508,2.13099718,336.8806,212.2316,150.1866
26566,COSMOS 2374 (GLONASS),NSO,24217.61715971,1 26566U 00063C   24217.61715971 -.00000088  00000-0  00000-0 0    18\,2 26566  65.5360 336.7382 0075234 211.9120 149.3036  2.13099812185231,65.536,0.0075234,2.13099812,336.7382,211.912,149.3036
26566,COSMOS 2374 (GLONASS),NSO,24219.50366285,1 26566U 00063C   24219.50366285 -.00000081  00000-0  00000-0 0    11\,2 26566  65.5351 336.6745 0075383 212.0102 156.4395  2.13099821185271,65.5351,0.0075383,2.13099821,336.6745,212.0102,156.4395
26566,COSMOS 2374 (GLONASS),NSO,24220.43450387,1 26566U 00063C   24220.43450387 -.00000079  00000-0  00000-0 0    19\,2 26566  65.5349 336.6431 0075607 212.1307 150.4140  2.13099806185294,65.5349,0.0075607,2.13099806,336.6431,212.1307,150.414
26566,COSMOS 2374 (GLONASS),NSO,24220.90168088,1 26566U 00063C   24220.90168088 -.00000078  00000-0  00000-0 0    14\,2 26566  65.5347 336.6273 0075687 212.2324 148.7069  2.13099821185303,65.5347,0.0075687,2.13099821,336.6273,212.2324,148.7069
26566,COSMOS 2374 (GLONASS),NSO,24221.36785444,1 26566U 00063C   24221.36785444 -.00000077  00000-0  00000-0 0    15\,2 26566  65.5344 336.6116 0075730 212.2644 146.3006  2.13099839185304,65.5344,0.007573,2.13099839,336.6116,212.2644,146.3006
26566,COSMOS 2374 (GLONASS),NSO,24221.83598549,1 26566U 00063C   24221.83598549 -.00000076  00000-0  00000-0 0    14\,2 26566  65.5343 336.5958 0075617 212.1424 145.5528  2.13099809185313,65.5343,0.0075617,2.13099809,336.5958,212.1424,145.5528
26566,COSMOS 2374 (GLONASS),NSO,24224.28520993,1 26566U 00063C   24224.28520993 -.00000073  00000-0  00000-0 0    11\,2 26566  65.5328 336.5131 0075598 212.0994 224.5266  2.13099775185373,65.5328,0.0075598,2.13099775,336.5131,212.0994,224.5266
26566,COSMOS 2374 (GLONASS),NSO,24225.60533944,1 26566U 00063C   24225.60533944 -.00000071  00000-0  00000-0 0    16\,2 26566  65.5321 336.4686 0075651 212.1207 157.2468  2.13099766185408,65.5321,0.0075651,2.13099766,336.4686,212.1207,157.2468
26566,COSMOS 2374 (GLONASS),NSO,24226.05952017,1 26566U 00063C   24226.05952017 -.00000070  00000-0  00000-0 0    11\,2 26566  65.5319 336.4533 0075654 212.1281 145.6655  2.13099783185409,65.5319,0.0075654,2.13099783,336.4533,212.1281,145.6655
26566,COSMOS 2374 (GLONASS),NSO,24228.40481260,1 26566U 00063C   24228.40481260 -.00000065  00000-0  00000+0 0  4971\,2 26566  65.5306 336.3739 0075633 212.1880 144.8028  2.13099754185520,65.5306,0.0075633,2.13099754,336.3739,212.188,144.8028
26566,COSMOS 2374 (GLONASS),NSO,24229.42833101,1 26566U 00063C   24229.42833101 -.00000062  00000-0  00000-0 0    18\,2 26566  65.5301 336.3393 0075668 212.1984 209.9872  2.13099706185486,65.5301,0.0075668,2.13099706,336.3393,212.1984,209.9872
26566,COSMOS 2374 (GLONASS),NSO,24235.53198227,1 26566U 00063C   24235.53198227 -.00000064  00000-0  00000+0 0  4981\,2 26566  65.5272 336.1329 0075764 212.2242 212.3936  2.13099590185676,65.5272,0.0075764,2.1309959,336.1329,212.2242,212.3936
26566,COSMOS 2374 (GLONASS),NSO,24235.92072178,1 26566U 00063C   24235.92072178 -.00000066  00000-0  00000-0 0    13\,2 26566  65.5270 336.1198 0075782 212.2369 150.6034  2.13099592185628,65.527,0.0075782,2.13099592,336.1198,212.2369,150.6034
26566,COSMOS 2374 (GLONASS),NSO,24236.46026525,1 26566U 00063C   24236.46026525 -.00000070  00000-0  00000-0 0    13\,2 26566  65.5267 336.1015 0075791 212.2353 204.5172  2.13099590185636,65.5267,0.0075791,2.1309959,336.1015,212.2353,204.5172
26566,COSMOS 2374 (GLONASS),NSO,24236.91883844,1 26566U 00063C   24236.91883844 -.00000073  00000-0  00000-0 0    11\,2 26566  65.5265 336.0860 0075798 212.2371 196.3111  2.13099592185642,65.5265,0.0075798,2.13099592,336.086,212.2371,196.3111
26566,COSMOS 2374 (GLONASS),NSO,24239.68218068,1 26566U 00063C   24239.68218068 -.00000091  00000-0  00000-0 0    18\,2 26566  65.5252 335.9926 0075842 212.2332 156.2205  2.13099630185705,65.5252,0.0075842,2.1309963,335.9926,212.2332,156.2205
26566,COSMOS 2374 (GLONASS),NSO,24243.52550934,1 26566U 00063C   24243.52550934 -.00000090  00000-0  00000-0 0    16\,2 26566  65.5234 335.8627 0075943 212.2997 224.5722  2.13099680185787,65.5234,0.0075943,2.1309968,335.8627,212.2997,224.5722
26566,COSMOS 2374 (GLONASS),NSO,24244.40057667,1 26566U 00063C   24244.40057667 -.00000087  00000-0  00000-0 0    15\,2 26566  65.5230 335.8331 0075944 212.2758 175.9061  2.13099682185801,65.523,0.0075944,2.13099682,335.8331,212.2758,175.9061
26566,COSMOS 2374 (GLONASS),NSO,24245.35308519,1 26566U 00063C   24245.35308519 -.00000083  00000-0  00000-0 0    11\,2 26566  65.5225 335.8010 0075960 212.3251 186.5776  2.13099784185822,65.5225,0.007596,2.13099784,335.801,212.3251,186.5776
26566,COSMOS 2374 (GLONASS),NSO,24246.36968052,1 26566U 00063C   24246.36968052 -.00000078  00000-0  00000-0 0    11\,2 26566  65.5221 335.7666 0075972 212.2160 246.5738  2.13099871185849,65.5221,0.0075972,2.13099871,335.7666,212.216,246.5738
26566,COSMOS 2374 (GLONASS),NSO,24251.51214255,1 26566U 00063C   24251.51214255 -.00000067  00000-0  00000-0 0    11\,2 26566  65.5198 335.5929 0076095 212.1623 231.6822  2.13099814185950,65.5198,0.0076095,2.13099814,335.5929,212.1623,231.6822
26566,COSMOS 2374 (GLONASS),NSO,24252.40541583,1 26566U 00063C   24252.40541583 -.00000065  00000-0  00000-0 0    15\,2 26566  65.5194 335.5628 0076004 212.2394 196.8807  2.13099797185975,65.5194,0.0076004,2.13099797,335.5628,212.2394,196.8807
26566,COSMOS 2374 (GLONASS),NSO,24253.34770906,1 26566U 00063C   24253.34770906 -.00000063  00000-0  00000-0 0    10\,2 26566  65.5190 335.5309 0076010 212.2461 199.7572  2.13099779185992,65.519,0.007601,2.13099779,335.5309,212.2461,199.7572
26566,COSMOS 2374 (GLONASS),NSO,24255.63373329,1 26566U 00063C   24255.63373329 -.00000056  00000-0  00000+0 0  5030\,2 26566  65.5179 335.4536 0076029 212.2516 153.4818  2.13099715186105,65.5179,0.0076029,2.13099715,335.4536,212.2516,153.4818
26566,COSMOS 2374 (GLONASS),NSO,24259.45093135,1 26566U 00063C   24259.45093135 -.00000045  00000-0  00000-0 0    10\,2 26566  65.5162 335.3244 0076074 212.2393 201.8688  2.13099638186124,65.5162,0.0076074,2.13099638,335.3244,212.2393,201.8688
26566,COSMOS 2374 (GLONASS),NSO,24260.34641807,1 26566U 00063C   24260.34641807 -.00000044  00000-0  00000-0 0    14\,2 26566  65.5158 335.2941 0076105 212.2980 168.7843  2.13099596186148,65.5158,0.0076105,2.13099596,335.2941,212.298,168.7843
26566,COSMOS 2374 (GLONASS),NSO,24265.95307334,1 26566U 00063C   24265.95307334 -.00000070  00000-0  00000-0 0    19\,2 26566  65.5132 335.1042 0076187 212.3500 149.8920  2.13099579186260,65.5132,0.0076187,2.13099579,335.1042,212.35,149.892
26566,COSMOS 2374 (GLONASS),NSO,24266.88695046,1 26566U 00063C   24266.88695046 -.00000075  00000-0  00000-0 0    17\,2 26566  65.5128 335.0725 0076184 212.3254 146.3438  2.13099617186275,65.5128,0.0076184,2.13099617,335.0725,212.3254,146.3438
26566,COSMOS 2374 (GLONASS),NSO,24267.38500131,1 26566U 00063C   24267.38500131 -.00000077  00000-0  00000-0 0    15\,2 26566  65.5126 335.0556 0076189 212.3255 168.4247  2.13099629186299,65.5126,0.0076189,2.13099629,335.0556,212.3255,168.4247
26566,COSMOS 2374 (GLONASS),NSO,24268.39216779,1 26566U 00063C   24268.39216779 -.00000079  00000-0  00000-0 0    11\,2 26566  65.5121 335.0215 0076203 212.3298 221.0710  2.13099654186312,65.5121,0.0076203,2.13099654,335.0215,212.3298,221.071
26566,COSMOS 2374 (GLONASS),NSO,24269.31470740,1 26566U 00063C   24269.31470740 -.00000079  00000-0  00000-0 0    14\,2 26566  65.5117 334.9902 0076213 212.3340 208.7957  2.13099684186337,65.5117,0.0076213,2.13099684,334.9902,212.334,208.7957
